NORAD_CAT_ID,OBJECT_NAME,OBJECT_TYPE,EPOCH,MEAN_MOTION,ECCENTRICITY,INCLINATION,RA_OF_ASC_NODE,ARG_OF_PERICENTER,MEAN_ANOMALY,BSTAR,MEAN_MOTION_DOT,MEAN_MOTION_DDOT,TLE_LINE0,TLE_LINE1,TLE_LINE2,SEMIMAJOR_AXIS,PERIOD,APOGEE,PERIGEE,DECAYED
53152.0,STARLINK-4045,PAYLOAD,2024-08-13 08:49:33,15.08855282,0.0001514,53.2156,217.8638,101.5543,258.562,0.00018069,2.59e-05,0.0,0 STARLINK-4045,1 53152U 22083W   24226.36775461  .00002590  00000-0  18069-3 0  9999,2 53152  53.2156 217.8638 0001514 101.5543 258.5620 15.08855282114801,6917.834,95.437,540.746,538.651,0.0
53152.0,STARLINK-4045,PAYLOAD,2024-08-13 16:46:29,15.08838633,0.0001346,53.216,216.3766,96.0564,264.0582,-0.00021796,-3.755e-05,0.0,0 STARLINK-4045,1 53152U 22083W   24226.69895649 -.00003755  00000-0 -21796-3 0  9993,2 53152  53.2160 216.3766 0001346  96.0564 264.0582 15.08838633115481,6917.885,95.438,540.681,538.818,0.0
53152.0,STARLINK-4045,PAYLOAD,2024-08-14 05:29:36,15.08817387,0.0001379,53.2158,213.9972,100.589,259.5257,0.00025883,3.831e-05,0.0,0 STARLINK-4045,1 53152U 22083W   24227.22888903  .00003831  00000-0  25883-3 0  9992,2 53152  53.2158 213.9972 0001379 100.5890 259.5257 15.08817387115569,6917.95,95.439,540.768,538.861,0.0
53152.0,STARLINK-4045,PAYLOAD,2024-08-14 08:40:22,15.08817697,0.000152,53.2146,213.4027,106.6864,253.4295,0.00054429,8.38e-05,0.0,0 STARLINK-4045,1 53152U 22083W   24227.36137178  .00008380  00000-0  54429-3 0  9990,2 53152  53.2146 213.4027 0001520 106.6864 253.4295 15.08817697114959,6917.949,95.439,540.865,538.762,0.0
53152.0,STARLINK-4045,PAYLOAD,2024-08-14 16:37:18,15.08820577,0.0001503,53.2145,211.916,104.0018,256.1142,0.00061727,9.544e-05,0.0,0 STARLINK-4045,1 53152U 22083W   24227.69257696  .00009544  00000-0  61727-3 0  9996,2 53152  53.2145 211.9160 0001503 104.0018 256.1142 15.08820577115002,6917.94,95.439,540.845,538.765,0.0
53152.0,STARLINK-4045,PAYLOAD,2024-08-15 05:20:24,15.08835236,0.0001504,53.2144,209.5375,97.2058,262.9105,0.00076425,0.00011894,0.0,0 STARLINK-4045,1 53152U 22083W   24228.22250045  .00011894  00000-0  76425-3 0  9999,2 53152  53.2144 209.5375 0001504  97.2058 262.9105 15.08835236115080,6917.895,95.438,540.8,538.719,0.0
53152.0,STARLINK-4045,PAYLOAD,2024-08-16 05:11:10,15.08860485,0.0001497,53.2144,205.0775,95.3152,264.8011,0.00080813,0.00012604,0.0,0 STARLINK-4045,1 53152U 22083W   24229.21609439  .00012604  00000-0  80813-3 0  9990,2 53152  53.2144 205.0775 0001497  95.3152 264.8011 15.08860485115238,6917.818,95.436,540.718,538.647,0.0
53152.0,STARLINK-4045,PAYLOAD,2024-08-17 03:26:34,15.0885139,0.0001527,53.2143,200.9105,95.4325,264.6841,-2.7208e-05,-7.21e-06,0.0,0 STARLINK-4045,1 53152U 22083W   24230.14345031 -.00000721  00000-0 -27208-4 0  9998,2 53152  53.2143 200.9105 0001527  95.4325 264.6841 15.08851390116005,6917.846,95.437,540.767,538.654,0.0
53152.0,STARLINK-4045,PAYLOAD,2024-08-17 20:55:48,15.08851449,0.0001449,53.2148,197.6397,93.8807,266.235,0.00014059,1.951e-05,0.0,0 STARLINK-4045,1 53152U 22083W   24230.87208637  .00001951  00000-0  14059-3 0  9991,2 53152  53.2148 197.6397 0001449  93.8807 266.2350 15.08851449115484,6917.845,95.437,540.713,538.708,0.0
53152.0,STARLINK-4045,PAYLOAD,2024-08-18 03:17:21,15.08842204,0.0001512,53.2155,196.4521,98.5858,261.5305,-3.3397e-05,-8.2e-06,0.0,0 STARLINK-4045,1 53152U 22083W   24231.13705118 -.00000820  00000-0 -33397-4 0  9990,2 53152  53.2155 196.4521 0001512  98.5858 261.5305 15.08842204116159,6917.874,95.437,540.785,538.693,0.0
53152.0,STARLINK-4045,PAYLOAD,2024-08-18 22:21:58,15.08838699,0.000141,53.2157,192.8859,96.7659,263.3494,6.9304e-05,8.15e-06,0.0,0 STARLINK-4045,1 53152U 22083W   24231.93193272  .00000815  00000-0  69304-4 0  9999,2 53152  53.2157 192.8859 0001410  96.7659 263.3494 15.08838699115646,6917.884,95.438,540.725,538.774,0.0
53152.0,STARLINK-4045,PAYLOAD,2024-08-19 04:43:31,15.08843921,0.0001376,53.2158,191.696,96.3409,263.774,0.00011805,1.592e-05,0.0,0 STARLINK-4045,1 53152U 22083W   24232.19688974  .00001592  00000-0  11805-3 0  9991,2 53152  53.2158 191.6960 0001376  96.3409 263.7740 15.08843921116314,6917.868,95.437,540.685,538.782,0.0
53152.0,STARLINK-4045,PAYLOAD,2024-08-19 07:54:17,15.08846257,0.0001375,53.2159,191.101,93.9483,266.1667,0.00014678,2.049e-05,0.0,0 STARLINK-4045,1 53152U 22083W   24232.32936839  .00002049  00000-0  14678-3 0  9991,2 53152  53.2159 191.1010 0001375  93.9483 266.1667 15.08846257115702,6917.861,95.437,540.677,538.775,0.0
53152.0,STARLINK-4045,PAYLOAD,2024-08-20 04:34:19,15.08827078,0.0001314,53.2171,187.2363,101.4669,258.6471,1.4818e-05,-5.2e-07,0.0,0 STARLINK-4045,1 53152U 22083W   24233.19050615 -.00000052  00000-0  14818-4 0  9996,2 53152  53.2171 187.2363 0001314 101.4669 258.6471 15.08827078116460,6917.92,95.438,540.694,538.876,0.0
53152.0,STARLINK-4045,PAYLOAD,2024-08-20 07:45:06,15.08823693,0.0001363,53.2172,186.641,89.735,270.3799,-3.1799e-05,-7.94e-06,0.0,0 STARLINK-4045,1 53152U 22083W   24233.32299059 -.00000794  00000-0 -31799-4 0  9999,2 53152  53.2172 186.6410 0001363  89.7350 270.3799 15.08823693115851,6917.93,95.439,540.738,538.852,0.0
53152.0,STARLINK-4045,PAYLOAD,2024-08-21 02:49:43,15.08841217,0.0001306,53.2166,183.0736,90.4427,269.6715,5.7915e-05,6.34e-06,0.0,0 STARLINK-4045,1 53152U 22083W   24234.11786074  .00000634  00000-0  57915-4 0  9994,2 53152  53.2166 183.0736 0001306  90.4427 269.6715 15.08841217116602,6917.877,95.437,540.645,538.838,0.0
53152.0,STARLINK-4045,PAYLOAD,2024-08-21 20:18:56,15.08868855,0.0001457,53.2166,179.8026,74.992,285.1233,-0.00028531,-4.829e-05,0.0,0 STARLINK-4045,1 53152U 22083W   24234.84648704 -.00004829  00000-0 -28531-3 0  9994,2 53152  53.2166 179.8026 0001457  74.9920 285.1233 15.08868855116716,6917.792,95.436,540.665,538.649,0.0
